LANDSAT 9               
1 49260U 21088A   23303.16704472  .00000844  00000+0  19735-3 0  9995
2 49260  98.2168  11.3536 0001082  94.9619 265.1703 14.57127345111045
